LEMUR-2-KREMPEL-BRO1    
1 63357U 25061G   26087.83450239  .00004839  00000+0  26942-3 0  9994
2 63357  97.5549  64.2775 0019390 161.0645 199.1312 15.13945563 55470
LEMUR-2-LANGER2SPACE    
1 63358U 25061H   26087.91108234  .00004715  00000+0  26513-3 0  9996
2 63358  97.5554  64.1998 0017138 168.7165 191.4454 15.13643256 55478
LEMUR-2-BALTO           
1 63395U 25052BH  26087.65185103  .00007784  00000+0  64358-3 0  9996
2 63395  97.6977 342.2377 0000622  56.1749 303.9534 14.99201005 56697
LEMUR-2-KRISH           
1 64561U 25135AK  26087.86800854  .00008303  00000+0  75670-3 0  9991
2 64561  97.7635 203.3972 0001572 103.4810 256.6586 14.95384360 41915
LEMUR-2-HUBBLE-4        
1 64565U 25135AP  26087.85539603  .00002769  00000+0  27215-3 0  9997
2 64565  97.7588 202.7867 0002798 164.2430 195.8878 14.92952830 41880
LEMUR-2-SEJONG-2        
1 64586U 25135BL  26087.92617943  .00007457  00000+0  67053-3 0  9995
2 64586  97.7572 203.5899 0003818 216.6469 143.4491 14.95944479 41948
LEMUR-2-HUBBLE-5        
1 64840U 25135BT  26087.85386316  .00002498  00000+0  24051-3 0  9998
2 64840  97.7605 203.2987 0004513 235.1346 124.9450 14.93859821 41916
LEMUR-2-KARENDARRELL    
1 64841U 25135BU  26087.84306751  .00011823  00000+0  98305-3 0  9998
2 64841  97.7585 204.2769 0008192 134.9296 225.2593 14.98837874 41978
LEMUR-2-LUCILLE-ROSE    
1 65403U 25135BV  26087.88521772  .00011066  00000+0  91870-3 0  9998
2 65403  97.7652 204.2990 0010271 175.2480 184.8842 14.98900418 36604
LEMUR-2-AFFIE-WAUWIE    
1 66295U 25248C   26087.32972643  .00027119  00000+0  10960-2 0  9995
2 66295  45.4034 192.1464 0008316 328.8503  31.1892 15.24320105 22241
LEMUR-2-DEANANDMAEVE    
1 66678U 25276N   26087.69515258  .00008932  00000+0  43409-3 0  9993
2 66678  97.4258 162.5539 0004403 280.7005  79.3733 15.18655174 18198
LEMUR-2-STAS-GORBUK     
1 66686U 25276W   26087.69493760  .00007406  00000+0  36266-3 0  9993
2 66686  97.4294 162.6058 0003649 275.9614  84.1204 15.18455160 18197
LEMUR-2-TEODOR          
1 66768U 25276DG  26087.76692595  .00007379  00000+0  34442-3 0  9992
2 66768  97.4195 162.8128 0002256  92.9379 267.2115 15.20124167 18228
LEMUR-2-LAILA           
1 66776U 25276DQ  26087.75221376  .00007977  00000+0  36978-3 0  9995
2 66776  97.4222 162.8683 0002867 102.0247 258.1310 15.20333803 18224
LEMUR-2-FINNIAN         
1 66782U 25276DX  26087.75778331  .00009205  00000+0  75568-3 0  9994
2 66782  97.5346 161.3730 0006817  54.5179 305.6680 14.99398452  7941
LEMUR-2-STARLIGHT       
1 66783U 25276DY  26087.71261804  .00009097  00000+0  77092-3 0  9996
2 66783  97.5308 161.1320 0015315  46.9062 313.3440 14.98098267 18146
